MEAN_MOTION;ECCENTRICITY;INCLINATION;RA_OF_ASC_NODE;ARG_OF_PERICENTER;MEAN_ANOMALY;BSTAR;MEAN_MOTION_DOT;MEAN_MOTION_DDOT;TYPE
12.62264791;4.6E-5;51.9873;119.3701;129.2273;38.1967;4.1823E-6;-1.03E-6;0;Globalstar
12.62264811;4.4E-5;51.9872;116.2463;129.2582;21.5716;3.5665E-5;-9.7E-7;0;Globalstar
12.6226482;4.12E-5;51.9872;113.1071;128.9376;28.105;6.1821E-5;-9.3E-7;0;Globalstar
12.62264831;3.95E-5;51.9872;110.4796;128.4752;351.114;9.0471E-5;-8.8E-7;0;Globalstar
12.62264844;3.73E-5;51.9872;107.5553;127.7352;37.3773;0.00010271;-8.5E-7;0;Globalstar
12.62264861;3.47E-5;51.9873;104.4337;126.2521;18.9584;9.4393E-5;-8.7E-7;0;Globalstar
12.62264864;3.38E-5;51.9873;101.5645;126.3233;342.3942;6.4684E-5;-9.2E-7;0;Globalstar
12.62264862;3.24E-5;51.9873;99.7025;125.1671;243.2806;3.0249E-5;-9.8E-7;0;Globalstar
12.62264861;3.13E-5;51.9874;98.4217;123.3154;357.0683;1.8831E-5;-1.0E-6;0;Globalstar
12.62264857;3.0E-5;51.9874;96.2808;121.9987;314.447;-2.7972E-5;-1.09E-6;0;Globalstar
12.6226486;2.97E-5;51.9874;95.7799;121.2026;343.0759;-2.1359E-5;-1.08E-6;0;Globalstar
12.62264865;2.85E-5;51.9875;93.144;119.8622;319.4782;-5.6703E-5;-1.14E-6;0;Globalstar
12.62264864;2.77E-5;51.9874;92.1329;118.0464;30.7689;-5.8638E-5;-1.14E-6;0;Globalstar
12.62264843;2.64E-5;51.9875;89.2443;113.4339;27.4284;-7.5872E-5;-1.17E-6;0;Globalstar
12.62264838;2.61E-5;51.9875;88.9902;112.271;47.8828;-8.5901E-5;-1.19E-6;0;Globalstar
12.62264839;2.53E-5;51.9876;86.1031;108.987;41.1202;-7.0582E-5;-1.16E-6;0;Globalstar
12.62264799;2.49E-5;51.9877;83.2157;101.6945;38.999;-6.0588E-5;-1.15E-6;0;Globalstar
12.62264797;2.51E-5;51.9883;81.0866;98.0781;341.6577;-4.8745E-5;-1.13E-6;0;Globalstar
12.62264785;2.53E-5;51.9879;80.0746;95.0351;54.8366;-3.6032E-5;-1.1E-6;0;Globalstar
12.62264792;2.57E-5;51.9881;77.1868;90.4849;50.6034;-6.038E-6;-1.05E-6;0;Globalstar
12.6226479;2.56E-5;51.9881;76.933;90.0298;69.9835;-1.3746E-5;-1.06E-6;0;Globalstar
12.62264777;2.59E-5;51.9883;73.8232;86.9637;35.5672;-1.2419E-5;-1.06E-6;0;Globalstar
12.62264803;2.48E-5;51.9888;72.6693;87.98;317.8519;-5.8746E-5;-1.14E-6;0;Globalstar
12.62264781;2.45E-5;51.9889;69.7941;85.5684;292.6996;-7.1117E-5;-1.17E-6;0;Globalstar
12.62264772;2.51E-5;51.9891;66.6404;82.0701;324.5378;-7.368E-5;-1.17E-6;0;Globalstar
12.62264777;2.69E-5;51.9887;65.868;81.5134;37.7045;-4.3203E-5;-1.12E-6;0;Globalstar
12.62264791;2.8E-5;51.9889;63.4929;78.6967;346.3523;-3.8981E-5;-1.11E-6;0;Globalstar
12.62264778;2.97E-5;51.989;60.8633;75.6254;315.375;-4.4944E-5;-1.12E-6;0;Globalstar
12.62264771;3.0E-5;51.989;60.6155;75.665;325.3225;-5.6832E-5;-1.14E-6;0;Globalstar
12.62264748;3.16E-5;51.9892;57.6933;73.3549;10.3148;-7.7056E-5;-1.18E-6;0;Globalstar
12.62264746;3.17E-5;51.9892;57.4667;73.4361;348.5396;-9.1271E-5;-1.2E-6;0;Globalstar
12.62264751;3.28E-5;51.9892;56.1915;72.7078;93.1381;-8.434E-5;-1.19E-6;0;Globalstar
12.62264735;3.36E-5;51.9894;53.8444;71.975;357.8645;-8.6563E-5;-1.19E-6;0;Globalstar
12.62264719;3.43E-5;51.9895;52.8185;70.4931;91.0584;-0.00010435;-1.22E-6;0;Globalstar
12.62264733;3.43E-5;51.9896;50.9443;69.959;9.7957;-8.2896E-5;-1.19E-6;0;Globalstar
12.62264712;3.57E-5;51.9898;47.5645;68.622;17.0423;-5.747E-5;-1.14E-6;0;Globalstar
12.62264726;3.6E-5;51.9898;46.7905;68.2473;92.8887;-4.9194E-5;-1.13E-6;0;Globalstar
12.62264745;3.72E-5;51.99;44.1347;68.2225;97.9436;-6.8122E-6;-1.05E-6;0;Globalstar
12.62264724;3.86E-5;51.9901;42.2642;68.2356;10.5696;-1.5285E-5;-1.07E-6;0;Globalstar
12.62264745;3.99E-5;51.9902;41.2424;68.1773;96.2027;1.4464E-5;-1.01E-6;0;Globalstar
12.62264764;4.13E-5;51.9903;38.3602;67.8821;79.7056;2.8284E-5;-9.9E-7;0;Globalstar
12.62264774;4.15E-5;51.9903;38.1063;67.8307;98.9368;3.4969E-5;-9.8E-7;0;Globalstar
12.62264781;4.4E-5;51.9905;35.2147;68.0288;96.0155;3.648E-5;-9.7E-7;0;Globalstar
12.62264769;4.51E-5;51.9906;33.0943;68.7015;21.0676;5.9833E-6;-1.03E-6;0;Globalstar
12.62264806;4.71E-5;51.9906;31.6252;68.0496;55.2189;3.1267E-5;-9.8E-7;0;Globalstar
12.62264843;4.78E-5;51.9907;29.9676;68.7029;9.5097;4.2896E-5;-9.6E-7;0;Globalstar
12.62264803;4.88E-5;51.9907;27.3531;68.5877;313.2009;1.5797E-6;-1.03E-6;0;Globalstar
12.62264802;4.91E-5;51.9908;27.0774;68.8156;4.5765;-1.6391E-6;-1.04E-6;0;Globalstar
12.6226482;5.03E-5;51.9908;23.9393;68.6957;9.9723;7.6524E-7;-1.04E-6;0;Globalstar
12.62264797;5.18E-5;51.9909;21.0347;68.9204;26.4591;-1.7837E-5;-1.07E-6;0;Globalstar
12.62264866;5.44E-5;51.9909;17.9113;70.0526;8.6334;4.5105E-5;-9.6E-7;0;Globalstar
12.62264851;5.48E-5;51.9908;16.8976;69.4286;82.6836;4.099E-5;-9.6E-7;0;Globalstar
12.6226485;5.65E-5;51.9909;13.7618;70.1824;83.7311;4.7618E-5;-9.5E-7;0;Globalstar
12.62264875;5.71E-5;51.9909;11.8831;70.8211;8.0748;6.8794E-5;-9.1E-7;0;Globalstar
12.62264854;5.9E-5;51.9909;8.9928;72.0236;2.1154;5.471E-5;-9.4E-7;0;Globalstar
12.6226486;5.92E-5;51.9909;8.7465;71.8382;10.1445;6.3149E-5;-9.2E-7;0;Globalstar
12.62264883;5.98E-5;51.9908;5.8551;72.4686;6.5155;7.044E-5;-9.1E-7;0;Globalstar
12.62264899;6.15E-5;51.9908;2.7178;73.2404;9.7514;6.2546E-5;-9.3E-7;0;Globalstar
12.62264908;6.2E-5;51.9908;1.959;73.3051;62.6478;6.8561E-5;-9.1E-7;0;Globalstar
12.62264907;6.21E-5;51.9908;1.7042;73.2437;83.1923;6.0096E-5;-9.3E-7;0;Globalstar
12.62264899;6.27E-5;51.9908;359.8271;74.297;4.6913;3.6543E-5;-9.7E-7;0;Globalstar
12.62264922;6.34E-5;51.9907;358.8138;74.1865;77.6724;4.8538E-5;-9.5E-7;0;Globalstar
12.62264953;6.51E-5;51.9907;355.9309;75.4164;60.8578;5.5775E-5;-9.4E-7;0;Globalstar
12.62264962;6.58E-5;51.9906;353.7989;76.3398;3;3.9074E-5;-9.7E-7;0;Globalstar
12.62264949;6.7E-5;51.9904;350.4077;78.1333;24.3153;3.2909E-5;-9.8E-7;0;Globalstar
12.62264967;6.75E-5;51.9904;349.8786;78.4463;93.9717;4.4596E-5;-9.6E-7;0;Globalstar
12.62264989;6.77E-5;51.9903;347.5331;79.709;354.4565;5.7552E-5;-9.3E-7;0;Globalstar
12.62264994;6.81E-5;51.9902;346.7583;79.7384;71.2261;6.0759E-5;-9.3E-7;0;Globalstar
12.62264984;6.87E-5;51.9901;344.3793;81.2573;21.5015;6.2E-5;-9.3E-7;0;Globalstar
12.62265017;6.88E-5;51.99;343.6194;81.1442;76.0274;8.293E-5;-8.9E-7;0;Globalstar
12.62265027;6.93E-5;51.9899;341.5045;82.3023;352.3663;9.3016E-5;-8.7E-7;0;Globalstar
12.62265031;6.99E-5;51.9898;338.8513;83.4985;352.2161;8.5784E-5;-8.8E-7;0;Globalstar
12.62265052;7.06E-5;51.9897;335.7139;84.9936;354.5465;8.9414E-5;-8.8E-7;0;Globalstar
12.62265056;7.08E-5;51.9897;335.187;85.2121;61.0293;9.766E-5;-8.6E-7;0;Globalstar
12.62265078;7.06E-5;51.9896;333.58;85.4095;299.9665;0.00010629;-8.5E-7;0;Globalstar
12.62265037;6.96E-5;51.9899;332.3217;86.6394;16.9751;3.1489E-5;-9.8E-7;0;Globalstar
12.62265035;6.97E-5;51.9898;330.4519;87.4007;287.7216;2.5785E-5;-9.9E-7;0;Globalstar
12.62265025;6.99E-5;51.9898;329.1624;87.9017;52.2609;1.4766E-5;-1.01E-6;0;Globalstar
12.62265011;7.0E-5;51.9898;328.6738;88.5156;61.2323;7.3128E-6;-1.02E-6;0;Globalstar
12.62265057;7.04E-5;51.9897;326.2929;89.604;14.6332;2.782E-5;-9.9E-7;0;Globalstar
12.62265072;7.25E-5;51.9893;325.5326;89.5976;70.0263;1.9256E-5;-1.0E-6;0;Globalstar
12.62265069;7.07E-5;51.9896;323.1294;90.9152;56.066;3.3528E-5;-9.8E-7;0;Globalstar
12.62265075;7.07E-5;51.9895;320.2644;92.374;11.9213;3.4098E-5;-9.8E-7;0;Globalstar
12.62265087;7.26E-5;51.989;317.1383;93.7259;358.0858;5.8418E-6;-1.03E-6;0;Globalstar
12.62265067;7.25E-5;51.989;316.6179;93.5762;55.1871;-1.0673E-5;-1.06E-6;0;Globalstar
12.62265077;7.23E-5;51.9888;313.4758;94.8308;64.7311;1.4363E-5;-1.01E-6;0;Globalstar
12.62265076;6.98E-5;51.9893;311.5998;96.3144;343.6041;-3.9097E-7;-1.04E-6;0;Globalstar
12.62265039;6.98E-5;51.9892;308.2225;96.4251;345.6752;-1.4341E-5;-1.06E-6;0;Globalstar
12.62265045;6.98E-5;51.9892;307.9616;96.5228;15.1055;-1.0541E-5;-1.06E-6;0;Globalstar
12.62265027;6.95E-5;51.9891;306.0959;97.3442;279.5121;-2.0775E-5;-1.07E-6;0;Globalstar
12.6226506;6.93E-5;51.9891;305.0805;98.0437;354.8316;-4.9027E-6;-1.05E-6;0;Globalstar
12.62265058;6.9E-5;51.9891;302.9545;98.8087;288.0345;-1.2609E-5;-1.06E-6;0;Globalstar
12.62265039;6.9E-5;51.9891;301.9328;99.1903;12.8958;-2.6109E-5;-1.08E-6;0;Globalstar
12.6226503;6.9E-5;51.9891;301.4185;99.1942;60.7774;-3.056E-5;-1.09E-6;0;Globalstar
12.62265037;6.83E-5;51.989;298.7724;100.724;49.5996;-1.2765E-5;-1.06E-6;0;Globalstar
12.62265037;6.78E-5;51.989;296.4159;102.0354;326.2604;-1.8603E-5;-1.07E-6;0;Globalstar
12.6226505;6.77E-5;51.989;295.9041;102.0891;10.4179;-9.47E-6;-1.05E-6;0;Globalstar
12.62265069;6.86E-5;51.9887;293.0237;103.9739;348.3568;-1.8428E-5;-1.07E-6;0;Globalstar
12.62265052;6.59E-5;51.989;289.8753;105.1847;7.7869;-1.2459E-6;-1.04E-6;0;Globalstar
12.62265051;6.45E-5;51.989;286.7341;107.3174;15.3647;-1.7324E-6;-1.04E-6;0;Globalstar
12.62265047;6.44E-5;51.989;286.4745;107.3274;42.8145;-6.8266E-6;-1.05E-6;0;Globalstar
12.62265045;6.39E-5;51.989;283.8466;108.0044;5.3848;-7.8069E-7;-1.04E-6;0;Globalstar
12.62265033;6.29E-5;51.989;281.9678;109.2085;289.1826;-1.2574E-5;-1.06E-6;0;Globalstar
12.62265053;6.25E-5;51.989;280.7054;109.663;13.4429;-2.7343E-6;-1.04E-6;0;Globalstar
12.62265052;6.16E-5;51.989;278.8397;110.8262;277.6069;-1.0282E-5;-1.06E-6;0;Globalstar
12.62265041;6.18E-5;51.989;278.5658;110.6565;326.7941;-1.4506E-5;-1.06E-6;0;Globalstar
12.62265045;6.16E-5;51.989;277.8177;110.9529;3.31;-1.2984E-5;-1.06E-6;0;Globalstar
12.62265031;6.18E-5;51.9885;274.6766;111.4766;12.0004;5.4712E-5;-9.4E-7;0;Globalstar
12.62265024;6.15E-5;51.9885;274.4161;111.6317;40.7071;4.4271E-5;-9.6E-7;0;Globalstar
12.62265004;6.11E-5;51.9885;272.5568;112.3249;295.8208;4.5263E-5;-9.6E-7;0;Globalstar
12.62265013;6.05E-5;51.9885;271.5287;112.4688;30.6494;6.3487E-5;-9.2E-7;0;Globalstar
12.62265013;6.05E-5;51.9885;271.5287;112.4688;30.6494;6.3487E-5;-9.2E-7;0;Globalstar
12.62265044;5.89E-5;51.9885;268.3876;114.2554;38.3128;8.2493E-5;-8.9E-7;0;Globalstar
12.62265044;5.89E-5;51.9885;268.3876;114.2554;38.3128;8.2493E-5;-8.9E-7;0;Globalstar
12.62265055;5.74E-5;51.9885;265.5005;115.7056;27.2717;7.6843E-5;-9.0E-7;0;Globalstar
12.62265036;5.53E-5;51.9889;263.3733;117.2341;321.949;-6.7403E-6;-1.05E-6;0;Globalstar
12.6226505;5.51E-5;51.9888;262.3595;116.9073;35.92;6.3522E-6;-1.03E-6;0;Globalstar
